{"type": "FeatureCollection", "features": [ {"type": "Feature", "properties": {"norad_id": 34077, "name": "IRIDIUM 33 DEB", "group": "iridium-33-debris", "lat": -75.24435264874036, "lon": -114.00652583001319, "alt_km": 691.3427628890913, "timestamp": "2025-12-11T08:58:27.510082+00:00", "meta": {"OBJECT_NAME": "IRIDIUM 33 DEB", "OBJECT_ID": "1997-051CL", "EPOCH": "2025-12-11T04:48:57.780864", "MEAN_MOTION": 14.64803377, "ECCENTRICITY": 0.0010385, "INCLINATION": 86.3859, "RA_OF_ASC_NODE": 52.1851, "ARG_OF_PERICENTER": 44.5154, "MEAN_ANOMALY": 18.137, "EPHEMERIS_TYPE": 0, "CLASSIFICATION_TYPE": "U", "NORAD_CAT_ID": 34077, "ELEMENT_SET_NO": 999, "REV_AT_EPOCH": 88310, "BSTAR": 0.0023199, "MEAN_MOTION_DOT": 0.00012414, "MEAN_MOTION_DDOT": 0}, "tle": {"line1": "1 34077U 97051CL  25345.20066876  .00012414  00000+0  23199-2 0  9994", "line2": "2 34077  86.3859  52.1851 0010385  44.5154  18.1370 14.64803377883107"}}, "geometry": {"type": "Point", "coordinates": [-114.00652583001319, -75.24435264874036]}}, {"type": "Feature", "properties": {"norad_id": 34079, "name": "IRIDIUM 33 DEB", "group": "iridium-33-debris", "lat": 24.031911025025323, "lon": -172.3354478767655, "alt_km": 621.2378422239308, "timestamp": "2025-12-11T08:58:27.510093+00:00", "meta": {"OBJECT_NAME": "IRIDIUM 33 DEB", "OBJECT_ID": "1997-051CN", "EPOCH": "2025-12-11T02:02:18.974976", "MEAN_MOTION": 14.83452608, "ECCENTRICITY": 0.0005837, "INCLINATION": 86.3778, "RA_OF_ASC_NODE": 9.4145, "ARG_OF_PERICENTER": 13.5557, "MEAN_ANOMALY": 39.91, "EPHEMERIS_TYPE": 0, "CLASSIFICATION_TYPE": "U", "NORAD_CAT_ID": 34079, "ELEMENT_SET_NO": 999, "REV_AT_EPOCH": 88953, "BSTAR": 0.0024971, "MEAN_MOTION_DOT": 0.00020578, "MEAN_MOTION_DDOT": 0}, "tle": {"line1": "1 34079U 97051CN  25345.08494184  .00020578  00000+0  24971-2 0  9998", "line2": "2 34079  86.3778   9.4145 0005837  13.5557  39.9100 14.83452608889532"}}, "geometry": {"type": "Point", "coordinates": [-172.3354478767655, 24.031911025025323]}}, {"type": "Feature", "properties": {"norad_id": 34088, "name": "IRIDIUM 33 DEB", "group": "iridium-33-debris", "lat": -28.6666980631553, "lon": -146.6676032078918, "alt_km": 596.5383981437326, "timestamp": "2025-12-11T08:58:27.510119+00:00", "meta": {"OBJECT_NAME": "IRIDIUM 33 DEB", "OBJECT_ID": "1997-051CX", "EPOCH": "2025-12-11T03:26:50.826048", "MEAN_MOTION": 14.91253391, "ECCENTRICITY": 0.0005523, "INCLINATION": 86.3845, "RA_OF_ASC_NODE": 31.4571, "ARG_OF_PERICENTER": 182.298, "MEAN_ANOMALY": 230.8134, "EPHEMERIS_TYPE": 0, "CLASSIFICATION_TYPE": "U", "NORAD_CAT_ID": 34088, "ELEMENT_SET_NO": 999, "REV_AT_EPOCH": 88718, "BSTAR": 0.0038535, "MEAN_MOTION_DOT": 0.00038525, "MEAN_MOTION_DDOT": 0}, "tle": {"line1": "1 34088U 97051CX  25345.14364382  .00038525  00000+0  38535-2 0  9993", "line2": "2 34088  86.3845  31.4571 0005523 182.2980 230.8134 14.91253391887186"}}, "geometry": {"type": "Point", "coordinates": [-146.6676032078918, -28.6666980631553]}}, {"type": "Feature", "properties": {"norad_id": 34091, "name": "IRIDIUM 33 DEB", "group": "iridium-33-debris", "lat": 80.60268828153977, "lon": 90.20745724478596, "alt_km": 635.5177999960242, "timestamp": "2025-12-11T08:58:27.510131+00:00", "meta": {"OBJECT_NAME": "IRIDIUM 33 DEB", "OBJECT_ID": "1997-051DA", "EPOCH": "2025-12-11T05:21:58.568256", "MEAN_MOTION": 14.81622216, "ECCENTRICITY": 0.0033436, "INCLINATION": 86.3407, "RA_OF_ASC_NODE": 67.5278, "ARG_OF_PERICENTER": 298.8386, "MEAN_ANOMALY": 60.948, "EPHEMERIS_TYPE": 0, "CLASSIFICATION_TYPE": "U", "NORAD_CAT_ID": 34091, "ELEMENT_SET_NO": 999, "REV_AT_EPOCH": 87844, "BSTAR": 0.0076018, "MEAN_MOTION_DOT": 0.00060805, "MEAN_MOTION_DDOT": 0}, "tle": {"line1": "1 34091U 97051DA  25345.22359454  .00060805  00000+0  76018-2 0  9994", "line2": "2 34091  86.3407  67.5278 0033436 298.8386  60.9480 14.81622216878446"}}, "geometry": {"type": "Point", "coordinates": [90.20745724478596, 80.60268828153977]}}, {"type": "Feature", "properties": {"norad_id": 34097, "name": "IRIDIUM 33 DEB", "group": "iridium-33-debris", "lat": -19.981360061479897, "lon": -176.60501726396456, "alt_km": 838.7446511917278, "timestamp": "2025-12-11T08:58:27.510142+00:00", "meta": {"OBJECT_NAME": "IRIDIUM 33 DEB", "OBJECT_ID": "1997-051DG", "EPOCH": "2025-12-11T01:20:58.856064", "MEAN_MOTION": 14.3475402, "ECCENTRICITY": 0.0082781, "INCLINATION": 86.2006, "RA_OF_ASC_NODE": 2.1506, "ARG_OF_PERICENTER": 7.6829, "MEAN_ANOMALY": 352.5612, "EPHEMERIS_TYPE": 0, "CLASSIFICATION_TYPE": "U", "NORAD_CAT_ID": 34097, "ELEMENT_SET_NO": 999, "REV_AT_EPOCH": 87095, "BSTAR": 0.0020786, "MEAN_MOTION_DOT": 6.141e-05, "MEAN_MOTION_DDOT": 0}, "tle": {"line1": "1 34097U 97051DG  25345.05623676  .00006141  00000+0  20786-2 0  9995", "line2": "2 34097  86.2006   2.1506 0082781   7.6829 352.5612 14.34754020870952"}}, "geometry": {"type": "Point", "coordinates": [-176.60501726396456, -19.981360061479897]}}, {"type": "Feature", "properties": {"norad_id": 34145, "name": "IRIDIUM 33 DEB", "group": "iridium-33-debris", "lat": 71.82103599198595, "lon": -15.226202616785987, "alt_km": 708.3879322164557, "timestamp": "2025-12-11T08:58:27.510153+00:00", "meta": {"OBJECT_NAME": "IRIDIUM 33 DEB", "OBJECT_ID": "1997-051DY", "EPOCH": "2025-12-10T04:20:07.855008", "MEAN_MOTION": 14.42258512, "ECCENTRICITY": 0.0055658, "INCLINATION": 86.2123, "RA_OF_ASC_NODE": 333.6661, "ARG_OF_PERICENTER": 101.9259, "MEAN_ANOMALY": 258.8189, "EPHEMERIS_TYPE": 0, "CLASSIFICATION_TYPE": "U", "NORAD_CAT_ID": 34145, "ELEMENT_SET_NO": 999, "REV_AT_EPOCH": 87601, "BSTAR": 0.0015884, "MEAN_MOTION_DOT": 5.356e-05, "MEAN_MOTION_DDOT": 0}, "tle": {"line1": "1 34145U 97051DY  25344.18064647  .00005356  00000+0  15884-2 0  9999", "line2": "2 34145  86.2123 333.6661 0055658 101.9259 258.8189 14.42258512876012"}}, "geometry": {"type": "Point", "coordinates": [-15.226202616785987, 71.82103599198595]}}, {"type": "Feature", "properties": {"norad_id": 34146, "name": "IRIDIUM 33 DEB", "group": "iridium-33-debris", "lat": 36.85076567726595, "lon": -6.80418184813287, "alt_km": 744.0521990070547, "timestamp": "2025-12-11T08:58:27.510163+00:00", "meta": {"OBJECT_NAME": "IRIDIUM 33 DEB", "OBJECT_ID": "1997-051DZ", "EPOCH": "2025-12-11T00:47:22.560000", "MEAN_MOTION": 14.49028773, "ECCENTRICITY": 0.0025351, "INCLINATION": 86.2839, "RA_OF_ASC_NODE": 350.5544, "ARG_OF_PERICENTER": 227.6894, "MEAN_ANOMALY": 191.4484, "EPHEMERIS_TYPE": 0, "CLASSIFICATION_TYPE": "U", "NORAD_CAT_ID": 34146, "ELEMENT_SET_NO": 999, "REV_AT_EPOCH": 88082, "BSTAR": 0.001422, "MEAN_MOTION_DOT": 5.436e-05, "MEAN_MOTION_DDOT": 0}, "tle": {"line1": "1 34146U 97051DZ  25345.03290000  .00005436  00000+0  14220-2 0  9991", "line2": "2 34146  86.2839 350.5544 0025351 227.6894 191.4484 14.49028773880828"}}, "geometry": {"type": "Point", "coordinates": [-6.80418184813287, 36.85076567726595]}}, {"type": "Feature", "properties": {"norad_id": 34159, "name": "IRIDIUM 33 DEB", "group": "iridium-33-debris", "lat": 16.456966893560935, "lon": -132.25644100330865, "alt_km": 775.9327743259028, "timestamp": "2025-12-11T08:58:27.510174+00:00", "meta": {"OBJECT_NAME": "IRIDIUM 33 DEB", "OBJECT_ID": "1997-051EN", "EPOCH": "2025-12-11T04:52:32.969568", "MEAN_MOTION": 14.38486874, "ECCENTRICITY": 0.0025994, "INCLINATION": 86.3509, "RA_OF_ASC_NODE": 48.8965, "ARG_OF_PERICENTER": 293.3015, "MEAN_ANOMALY": 66.5448, "EPHEMERIS_TYPE": 0, "CLASSIFICATION_TYPE": "U", "NORAD_CAT_ID": 34159, "ELEMENT_SET_NO": 999, "REV_AT_EPOCH": 87937, "BSTAR": 0.00056854, "MEAN_MOTION_DOT": 1.761e-05, "MEAN_MOTION_DDOT": 0}, "tle": {"line1": "1 34159U 97051EN  25345.20315937  .00001761  00000+0  56854-3 0  9998", "line2": "2 34159  86.3509  48.8965 0025994 293.3015  66.5448 14.38486874879377"}}, "geometry": {"type": "Point", "coordinates": [-132.25644100330865, 16.456966893560935]}}, {"type": "Feature", "properties": {"norad_id": 34350, "name": "IRIDIUM 33 DEB", "group": "iridium-33-debris", "lat": 21.19076872589997, "lon": -178.02680232513117, "alt_km": 725.4770129207609, "timestamp": "2025-12-11T08:58:27.510184+00:00", "meta": {"OBJECT_NAME": "IRIDIUM 33 DEB", "OBJECT_ID": "1997-051ES", "EPOCH": "2025-12-11T01:50:46.546368", "MEAN_MOTION": 14.45380646, "ECCENTRICITY": 0.0022689, "INCLINATION": 86.3276, "RA_OF_ASC_NODE": 3.5288, "ARG_OF_PERICENTER": 140.3676, "MEAN_ANOMALY": 273.777, "EPHEMERIS_TYPE": 0, "CLASSIFICATION_TYPE": "U", "NORAD_CAT_ID": 34350, "ELEMENT_SET_NO": 999, "REV_AT_EPOCH": 88269, "BSTAR": 0.0004553, "MEAN_MOTION_DOT": 1.625e-05, "MEAN_MOTION_DDOT": 0}, "tle": {"line1": "1 34350U 97051ES  25345.07692762  .00001625  00000+0  45530-3 0  9998", "line2": "2 34350  86.3276   3.5288 0022689 140.3676 273.7770 14.45380646882696"}}, "geometry": {"type": "Point", "coordinates": [-178.02680232513117, 21.19076872589997]}}, {"type": "Feature", "properties": {"norad_id": 34366, "name": "IRIDIUM 33 DEB", "group": "iridium-33-debris", "lat": 82.77032750228646, "lon": 79.94084881374256, "alt_km": 697.2301245146919, "timestamp": "2025-12-11T08:58:27.510195+00:00", "meta": {"OBJECT_NAME": "IRIDIUM 33 DEB", "OBJECT_ID": "1997-051FJ", "EPOCH": "2025-12-11T05:33:55.950912", "MEAN_MOTION": 14.54036307, "ECCENTRICITY": 0.0022295, "INCLINATION": 86.3694, "RA_OF_ASC_NODE": 49.9688, "ARG_OF_PERICENTER": 144.5199, "MEAN_ANOMALY": 276.4662, "EPHEMERIS_TYPE": 0, "CLASSIFICATION_TYPE": "U", "NORAD_CAT_ID": 34366, "ELEMENT_SET_NO": 999, "REV_AT_EPOCH": 88160, "BSTAR": 0.0016788, "MEAN_MOTION_DOT": 7.125e-05, "MEAN_MOTION_DDOT": 0}, "tle": {"line1": "1 34366U 97051FJ  25345.23189758  .00007125  00000+0  16788-2 0  9992", "line2": "2 34366  86.3694  49.9688 0022295 144.5199 276.4662 14.54036307881606"}}, "geometry": {"type": "Point", "coordinates": [79.94084881374256, 82.77032750228646]}}]}